0 DELTA 2 R/B(2)
1 25360U 98035C   13279.93692363 -.00000186  00000-0  00000+0 0  1261
2 25360 019.7205 357.9824 6937260 252.5112 100.5608 02.11090451118239
0 DELTA 2 R/B(2)
1 25360U 98035C   13282.75150529 -.00000245  00000-0  00000+0 0  1275
2 25360 019.7206 357.2365 6937647 253.8803 079.4104 02.11091385118291
0 DELTA 2 R/B(2)
1 25360U 98035C   13287.47919027  .00000011  00000-0  00000+0 0  1286
2 25360 019.7216 355.9824 6938255 256.1816 072.0195 02.11088727118399
0 DELTA 2 R/B(2)
1 25360U 98035C   13290.32741771 -.00000389  00000-0  00000+0 0  1293
2 25360 019.7217 355.2265 6938619 257.5680 076.4324 02.11092681118453
